#dP2024 11  6  0  0  0.00000000      96 __u+U IGS20 FIT  IAC
## 2339 259200.00000000   900.00000000 60620 0.0000000000000
+   52   G02G03G04G05G06G07G08G09G10G11G12G13G14G15G16G17G18
+        G19G20G21G22G23G24G25G26G27G28G29G30G31G32R01R02R03
+        R04R05R07R08R09R11R12R14R15R16R17R18R19R20R21R22R24
+        R26  0  0  0  0  0  0  0  0  0  0  0  0  0  0  0  0
+          0  0  0  0  0  0  0  0  0  0  0  0  0  0  0  0  0
++         6  5  5  6  6  6  6  5  6  6  5  6  6  6  5  6  6
++         6  6  6  5  6  6  7  7  6  6  6  6  6  5  7  7  7
++         6  6  5  6  8  6  7  7  6  7  5  6  7  7  7  6  7
++         8  0  0  0  0  0  0  0  0  0  0  0  0  0  0  0  0
++         0  0  0  0  0  0  0  0  0  0  0  0  0  0  0  0  0
%c M  cc GPS ccc cccc cccc cccc cccc ccccc ccccc ccccc ccccc
%c cc cc ccc ccc cccc cccc cccc cccc ccccc ccccc ccccc ccccc
%f  0.0000000  0.000000000  0.00000000000  0.000000000000000
%f  0.0000000  0.000000000  0.00000000000  0.000000000000000
%i    0    0    0    0      0      0      0      0         0
%i    0    0    0    0      0      0      0      0         0
/* INFORMATION & ANALYSIS CENTER (IAC)      ULTRA-RAPID DATA
/* S/V CLOCKS ARE ALIGNED TO GNSS TIME                      
/* G:C1WC2W R:C1PC2P E:C1XC5X C:C2IC6I J:C1CC2S             
/* PCV:IGS20_2317 OL/AL:FES2004  NONE     YN ORB:CoN CLK:CoN
*  2024 11 06  0 30  0.00000000
PG02  14411.460647 -21503.546981   5499.533652   -321.038929
PG03  13792.658683 -12470.700444 -19087.296231    591.837361
PG04   4897.377518 -18272.816675 -18567.533808    474.511124
PG05 -25220.656558   5390.951667   6310.303779   -192.098919
PG06 -11261.579642  -9395.280640 -22066.805575    -92.622995
PG07   3633.430485 -23392.029760  12097.620985    -21.995027
PG08  13294.149540  -7746.315527  21534.095885    405.594398
PG09  -4225.367119 -23290.323306 -12072.630645    430.787542
PG10  18865.954636  10610.478422  15843.264613   -184.979902
PG11 -18342.735539   4738.716225 -18550.829688   -748.671749
PG12 -18124.759249  10343.249140 -16686.386905   -550.137654
PG13 -16052.100692  -1819.835529  20896.204233    684.783754
PG14 -15207.537755 -13087.748283  17562.396752    533.562792
PG15 -11872.891886   9943.902039  21056.617199    224.346484
PG16  26679.257642    972.560369   2070.413171   -135.867652
PG17 -13352.560791 -22609.161885  -2809.031737    569.519949
PG18  -3169.696792  22639.809664  13354.948678   -659.896258
PG19 -16835.276106 -16714.565414 -12518.351492    559.333405
PG20 -25876.980123    625.317669  -5517.639911    368.998879
PG21  16488.817171 -17077.881416  11096.968760     98.137094
PG22 -21107.385806 -10587.448475  12243.568699    -77.143901
PG23   4954.606336  14447.859604  21789.579438    357.173007
PG24 -14592.298854  20898.133556   6215.951851   -481.785834
PG25  -3902.461694  15476.394772 -21549.974145    499.191987
PG26  24454.408669   5239.831398  -9664.985261     36.065737
PG27  17928.921238   4338.721747  18967.105391    -34.744302
PG28  10701.381405  11589.469335 -21383.887590   -469.832299
PG29   1252.477971  23174.632936 -12845.053516   -565.959271
PG30  -5642.803009 -17920.872550  18821.860805   -287.821226
PG31  17123.256424     57.311101 -20632.659735   -222.251026
PG32  16153.966817  20540.274572  -5117.718355   -577.635598
PR01 -13824.423300   2027.013097  21337.838675    103.472904
PR02    772.904963  13744.344113  21531.849314    -25.514574
PR03  15174.907961  18279.012795   9421.526229    110.821313
PR04  20658.146976  12993.330684  -7439.220073    262.651469
PR05  15346.371922    742.187474 -20366.034118    140.265862
PR07 -15426.946027 -18205.629193  -8894.769153     94.402209
PR08 -20796.132932 -12536.954906   7794.666345     -6.307546
PR09  12192.633670 -14271.268596  17246.657563    218.876526
PR11 -19096.152998  -1241.196456  16884.087517      7.553982
PR12 -23610.289287   9555.742298  -1225.401772     46.900706
PR14   5159.628469   9931.634553 -22911.374659     27.171229
PR15  20202.256488    367.699341 -15548.608993     74.390131
PR16  23602.557851  -9563.905759   1092.664826     30.555185
PR17   2547.322724  21444.829356  13552.782583    137.281761
PR18   9045.342573   7509.208564  22665.495269    170.469918
PR19  11561.137262  -8213.637951  21212.351013   -297.439521
PR20   7492.047277 -23922.997792   4639.097970   -121.513547
PR21  -1801.215356 -22044.927433 -12728.204547   -148.884115
PR22  -9641.583567  -6456.088760 -22683.545923     -1.132748
PR24  -6185.149167  24400.452211  -4029.293856    -78.959907
PR26 -20838.781858 -13428.719910   6056.032683   -115.735516
*  2024 11 06  0 45  0.00000000
PG02  14342.295060 -20729.085019   8241.631591   -321.031499
PG03  15851.513485 -12414.464907 -17429.947414    591.846786
PG04   6093.208223 -16413.173338 -19914.377705    474.517016
PG05 -25815.176203   5226.215885   3505.306491   -192.100001
PG06 -10004.524101 -11567.222060 -21628.392881    -92.648885
PG07   4433.059205 -24311.083054   9621.958777    -21.992806
PG08  14667.902804  -5683.295592  21325.065505    405.604023
PG09  -3231.944916 -22146.977989 -14341.605985    430.802603
PG10  17002.753609  10752.313460  17738.847122   -184.992780
PG11 -17304.132650   2786.987506 -19898.642264   -748.673654
PG12 -19867.427520  10101.989765 -14693.644481   -550.140024
PG13 -16930.999096  -4025.530357  19901.912327    684.785252
PG14 -13125.491648 -13247.416675  19042.178954    533.570154
PG15 -13505.168005   8024.353272  20908.907950    224.350347
PG16  26777.687148   1199.044002   -758.642781   -135.859072
PG17 -13223.146191 -22909.358931     63.617914    569.506903
PG18  -4023.577526  23756.108782  10945.684051   -659.896964
PG19 -17222.858087 -17925.327661 -10084.983090    559.337546
PG20 -25150.029459    199.493436  -8224.921653    368.998437
PG21  16194.665395 -15692.893648  13502.408713     98.136287
PG22 -19613.910767 -10708.303256  14514.544216    -77.146774
PG23   2463.270458  14597.442077  22092.248136    357.180203
PG24 -14555.424960  19905.098314   8854.789407   -481.784177
PG25  -6268.161698  15520.390942 -20917.529265    499.191725
PG26  23278.531028   5638.869232 -12052.955310     36.054017
PG27  18955.181143   6203.914547  17450.920534    -34.744339
PG28   9568.438756  13708.413174 -20654.225781   -469.843218
PG29    356.432878  21844.300819 -15060.188437   -565.956654
PG30  -4505.339960 -19644.952586  17312.684770   -287.814291
PG31  16008.400249   2126.171029 -21380.181449   -222.250627
PG32  16195.609480  21042.231527  -2311.683368   -577.631088
PR01 -15922.477196    582.176763  19917.154620    103.474575
PR02  -1315.573742  12019.947722  22510.408595    -25.514483
PR03  14215.622030  17345.617825  12260.585257    110.821243
PR04  21339.740701  13306.616120  -4318.603357    262.653668
PR05  17292.324424   2164.747279 -18634.680026    140.265666
PR07 -14501.219744 -17305.428708 -11776.320894     94.402777
PR08 -21496.523801 -12880.871730   4691.298979     -6.307748
PR09  13979.009005 -15144.551434  14990.244212    218.878498
PR11 -17028.039988  -2013.896963  18900.927510      7.553505
PR12 -23518.661474   9661.714604   1980.730200     46.901066
PR14   2563.395592  11043.114550 -22841.721030     27.170744
PR15  18268.175917   1075.378649 -17750.626685     74.389763
PR16  23484.009477  -9679.329418  -2124.417447     30.555570
PR17   2490.271050  22955.167566  10804.244686    137.284694
PR18   8684.814907  10222.082136  21728.476669    170.471805
PR19  10989.887377  -5584.438471  22340.511119   -297.440264
PR20   7144.855024 -23210.018221   7767.766895   -121.513819
PR21  -1764.178374 -23453.768325  -9907.036125   -148.886969
PR22  -9190.306451  -9179.194592 -21920.130227     -1.142992
PR24  -5946.878010  23733.743692  -7147.429421    -78.961544
PR26 -21375.975694 -13632.499150   2896.953285   -115.697133
EOF
